[{"OBJECT_NAME":"COSMOS 2582","OBJECT_ID":"2025-026B","EPOCH":"2026-03-09T19:42:31.273920","MEAN_MOTION":14.94730838,"ECCENTRICITY":0.0010584,"INCLINATION":81.9985,"RA_OF_ASC_NODE":175.8563,"ARG_OF_PERICENTER":32.77,"MEAN_ANOMALY":327.4174,"EPHEMERIS_TYPE":0,"CLASSIFICATION_TYPE":"U","NORAD_CAT_ID":62903,"ELEMENT_SET_NO":999,"REV_AT_EPOCH":5936,"BSTAR":0.0001816,"MEAN_MOTION_DOT":1.996e-5,"MEAN_MOTION_DDOT":0},{"OBJECT_NAME":"SPIRONE","OBJECT_ID":"2025-274H","EPOCH":"2026-03-09T18:01:36.945120","MEAN_MOTION":14.93072072,"ECCENTRICITY":0.00119665,"INCLINATION":97.7435,"RA_OF_ASC_NODE":359.5247,"ARG_OF_PERICENTER":353.7886,"MEAN_ANOMALY":6.3183,"EPHEMERIS_TYPE":0,"CLASSIFICATION_TYPE":"U","NORAD_CAT_ID":66657,"ELEMENT_SET_NO":999,"REV_AT_EPOCH":1538,"BSTAR":0.00040236773,"MEAN_MOTION_DOT":4.139e-5,"MEAN_MOTION_DDOT":0}]
