COSMOS 2582             
1 62903U 25026B   26068.82119530  .00001996  00000+0  18160-3 0  9999
2 62903  81.9985 175.8563 0010584  32.7700 327.4174 14.94730838 59362
SPIRONE                 
1 66657U 25274H   26068.75112204  .00004139  00000+0  40237-3 0  9999
2 66657  97.7435 359.5247 0011966 353.7886   6.3183 14.93072071 15387
